{
  "type": "FeatureCollection",
  "features": [
    {
      "type": "Feature",
      "properties": {
        "norad_id": 34481,
        "name": "COSMOS 2251 DEB",
        "group": "cosmos-2251-debris",
        "lat": 51.824797141303414,
        "lon": -153.0050936703011,
        "alt_km": 783.9717447828707,
        "timestamp": "2025-12-15T11:38:37.546552+00:00",
        "meta_object_name": "COSMOS 2251 DEB",
        "meta_object_id": "1993-036UA",
        "meta_epoch": "2025-12-14T15:32:32.309952",
        "meta_mean_motion": 14.32559559,
        "meta_eccentricity": 0.00706668,
        "meta_inclination": 73.9808,
        "meta_ra_of_asc_node": 49.9614,
        "meta_arg_of_pericenter": 223.9598,
        "meta_mean_anomaly": 264.146,
        "meta_ephemeris_type": 0,
        "meta_classification_type": "U",
        "meta_norad_cat_id": 34481,
        "meta_element_set_no": 999,
        "meta_rev_at_epoch": 87476,
        "meta_bstar": 0.00069878059,
        "meta_mean_motion_dot": 1.923e-05,
        "meta_mean_motion_ddot": 0,
        "tle_line1": "1 34481U 93036UA  25348.64759618  .00001923  00000+0  69878-3 0  9994",
        "tle_line2": "2 34481  73.9808  49.9614 0070666 223.9598 264.1460 14.32559559874766"
      },
      "geometry": {
        "type": "Point",
        "coordinates": [
          -153.0050936703011,
          51.824797141303414
        ]
      }
    },
    {
      "type": "Feature",
      "properties": {
        "norad_id": 34482,
        "name": "COSMOS 2251 DEB",
        "group": "cosmos-2251-debris",
        "lat": -57.74835940148411,
        "lon": -168.69908501109535,
        "alt_km": 640.6721556693728,
        "timestamp": "2025-12-15T11:38:37.546562+00:00",
        "meta_object_name": "COSMOS 2251 DEB",
        "meta_object_id": "1993-036UB",
        "meta_epoch": "2025-12-14T16:34:16.548384",
        "meta_mean_motion": 14.69235358,
        "meta_eccentricity": 0.00448435,
        "meta_inclination": 74.0374,
        "meta_ra_of_asc_node": 219.8151,
        "meta_arg_of_pericenter": 279.4317,
        "meta_mean_anomaly": 137.2705,
        "meta_ephemeris_type": 0,
        "meta_classification_type": "U",
        "meta_norad_cat_id": 34482,
        "meta_element_set_no": 999,
        "meta_rev_at_epoch": 88216,
        "meta_bstar": 0.0013436488,
        "meta_mean_motion_dot": 8.019e-05,
        "meta_mean_motion_ddot": 0,
        "tle_line1": "1 34482U 93036UB  25348.69046931  .00008019  00000+0  13436-2 0  9998",
        "tle_line2": "2 34482  74.0374 219.8151 0044843 279.4317 137.2705 14.69235358882167"
      },
      "geometry": {
        "type": "Point",
        "coordinates": [
          -168.69908501109535,
          -57.74835940148411
        ]
      }
    },
    {
      "type": "Feature",
      "properties": {
        "norad_id": 34544,
        "name": "COSMOS 2251 DEB",
        "group": "cosmos-2251-debris",
        "lat": 48.869069368927505,
        "lon": 0.29186742137797766,
        "alt_km": 1085.2933153241456,
        "timestamp": "2025-12-15T11:38:37.546572+00:00",
        "meta_object_name": "COSMOS 2251 DEB",
        "meta_object_id": "1993-036UE",
        "meta_epoch": "2025-12-13T23:53:30.258240",
        "meta_mean_motion": 13.5466391,
        "meta_eccentricity": 0.03840916,
        "meta_inclination": 73.914,
        "meta_ra_of_asc_node": 201.9961,
        "meta_arg_of_pericenter": 230.2101,
        "meta_mean_anomaly": 200.3541,
        "meta_ephemeris_type": 0,
        "meta_classification_type": "U",
        "meta_norad_cat_id": 34544,
        "meta_element_set_no": 999,
        "meta_rev_at_epoch": 82899,
        "meta_bstar": 0.0003836434,
        "meta_mean_motion_dot": 3.97e-06,
        "meta_mean_motion_ddot": 0,
        "tle_line1": "1 34544U 93036UE  25347.99548910  .00000397  00000+0  38364-3 0  9992",
        "tle_line2": "2 34544  73.9140 201.9961 0384091 230.2101 200.3541 13.54663910828997"
      },
      "geometry": {
        "type": "Point",
        "coordinates": [
          0.29186742137797766,
          48.869069368927505
        ]
      }
    },
    {
      "type": "Feature",
      "properties": {
        "norad_id": 34546,
        "name": "COSMOS 2251 DEB",
        "group": "cosmos-2251-debris",
        "lat": -70.09355470103425,
        "lon": 116.32092683917003,
        "alt_km": 739.602942302703,
        "timestamp": "2025-12-15T11:38:37.546582+00:00",
        "meta_object_name": "COSMOS 2251 DEB",
        "meta_object_id": "1993-036UG",
        "meta_epoch": "2025-12-14T21:44:18.069216",
        "meta_mean_motion": 14.45423309,
        "meta_eccentricity": 0.00219628,
        "meta_inclination": 74.0313,
        "meta_ra_of_asc_node": 245.147,
        "meta_arg_of_pericenter": 318.6918,
        "meta_mean_anomaly": 165.8078,
        "meta_ephemeris_type": 0,
        "meta_classification_type": "U",
        "meta_norad_cat_id": 34546,
        "meta_element_set_no": 999,
        "meta_rev_at_epoch": 88057,
        "meta_bstar": 0.00048192984,
        "meta_mean_motion_dot": 1.675e-05,
        "meta_mean_motion_ddot": 0,
        "tle_line1": "1 34546U 93036UG  25348.90576469  .00001675  00000+0  48193-3 0  9997",
        "tle_line2": "2 34546  74.0313 245.1470 0021962 318.6918 165.8078 14.45423309880579"
      },
      "geometry": {
        "type": "Point",
        "coordinates": [
          116.32092683917003,
          -70.09355470103425
        ]
      }
    },
    {
      "type": "Feature",
      "properties": {
        "norad_id": 34547,
        "name": "COSMOS 2251 DEB",
        "group": "cosmos-2251-debris",
        "lat": -6.782882855208178,
        "lon": 93.42936875137548,
        "alt_km": 668.7864965567578,
        "timestamp": "2025-12-15T11:38:37.546592+00:00",
        "meta_object_name": "COSMOS 2251 DEB",
        "meta_object_id": "1993-036UH",
        "meta_epoch": "2025-12-14T07:57:16.728768",
        "meta_mean_motion": 14.72397238,
        "meta_eccentricity": 0.00170387,
        "meta_inclination": 74.0312,
        "meta_ra_of_asc_node": 97.6262,
        "meta_arg_of_pericenter": 178.6488,
        "meta_mean_anomaly": 181.4734,
        "meta_ephemeris_type": 0,
        "meta_classification_type": "U",
        "meta_norad_cat_id": 34547,
        "meta_element_set_no": 999,
        "meta_rev_at_epoch": 88545,
        "meta_bstar": 0.002085091,
        "meta_mean_motion_dot": 0.00013234,
        "meta_mean_motion_ddot": 0,
        "tle_line1": "1 34547U 93036UH  25348.33144362  .00013234  00000+0  20851-2 0  9992",
        "tle_line2": "2 34547  74.0312  97.6262 0017038 178.6488 181.4734 14.72397238885459"
      },
      "geometry": {
        "type": "Point",
        "coordinates": [
          93.42936875137548,
          -6.782882855208178
        ]
      }
    },
    {
      "type": "Feature",
      "properties": {
        "norad_id": 34553,
        "name": "COSMOS 2251 DEB",
        "group": "cosmos-2251-debris",
        "lat": 68.34359057355468,
        "lon": -39.506807106807926,
        "alt_km": 706.1513104910555,
        "timestamp": "2025-12-15T11:38:37.546602+00:00",
        "meta_object_name": "COSMOS 2251 DEB",
        "meta_object_id": "1993-036UP",
        "meta_epoch": "2025-12-14T22:33:06.295680",
        "meta_mean_motion": 14.5774696,
        "meta_eccentricity": 0.00192342,
        "meta_inclination": 74.0247,
        "meta_ra_of_asc_node": 187.7057,
        "meta_arg_of_pericenter": 264.8927,
        "meta_mean_anomaly": 218.4091,
        "meta_ephemeris_type": 0,
        "meta_classification_type": "U",
        "meta_norad_cat_id": 34553,
        "meta_element_set_no": 999,
        "meta_rev_at_epoch": 88128,
        "meta_bstar": 0.00072283252,
        "meta_mean_motion_dot": 3.283e-05,
        "meta_mean_motion_ddot": 0,
        "tle_line1": "1 34553U 93036UP  25348.93965620  .00003283  00000+0  72283-3 0  9993",
        "tle_line2": "2 34553  74.0247 187.7057 0019234 264.8927 218.4091 14.57746960881289"
      },
      "geometry": {
        "type": "Point",
        "coordinates": [
          -39.506807106807926,
          68.34359057355468
        ]
      }
    },
    {
      "type": "Feature",
      "properties": {
        "norad_id": 34554,
        "name": "COSMOS 2251 DEB",
        "group": "cosmos-2251-debris",
        "lat": 14.673229534714052,
        "lon": -61.76571197768432,
        "alt_km": 750.3092853212383,
        "timestamp": "2025-12-15T11:38:37.546613+00:00",
        "meta_object_name": "COSMOS 2251 DEB",
        "meta_object_id": "1993-036UQ",
        "meta_epoch": "2025-12-14T20:41:24.408384",
        "meta_mean_motion": 14.37943074,
        "meta_eccentricity": 0.00230678,
        "meta_inclination": 74.0392,
        "meta_ra_of_asc_node": 295.0834,
        "meta_arg_of_pericenter": 356.8791,
        "meta_mean_anomaly": 34.34,
        "meta_ephemeris_type": 0,
        "meta_classification_type": "U",
        "meta_norad_cat_id": 34554,
        "meta_element_set_no": 999,
        "meta_rev_at_epoch": 87786,
        "meta_bstar": 0.00037367705,
        "meta_mean_motion_dot": 1.106e-05,
        "meta_mean_motion_ddot": 0,
        "tle_line1": "1 34554U 93036UQ  25348.86208806  .00001106  00000+0  37368-3 0  9999",
        "tle_line2": "2 34554  74.0392 295.0834 0023067 356.8791  34.3400 14.37943074877868"
      },
      "geometry": {
        "type": "Point",
        "coordinates": [
          -61.76571197768432,
          14.673229534714052
        ]
      }
    }
  ]
}